JILIN-1 07              
1 43159U 18008E   26068.93363942  .00011559  00000+0  36440-3 0  9990
2 43159  97.1876  91.5817 0010179  62.7832 297.4447 15.32987507449785
ERNST                   
1 60528U 24149BN  26068.81085955  .00017377  00000+0  49131-3 0  9999
2 60528  97.3842 151.9807 0004907 295.1196  64.9538 15.36382433 87008
